[{"OBJECT_NAME":"ONEWEB-0060","OBJECT_ID":"2020-020AH","EPOCH":"2025-11-06T07:26:34.648800","MEAN_MOTION":13.11417215,"ECCENTRICITY":0.00020226,"INCLINATION":87.8844,"RA_OF_ASC_NODE":65.4572,"ARG_OF_PERICENTER":133.6746,"MEAN_ANOMALY":226.455,"EPHEMERIS_TYPE":0,"CLASSIFICATION_TYPE":"U","NORAD_CAT_ID":45455,"ELEMENT_SET_NO":999,"REV_AT_EPOCH":27333,"BSTAR":0.0015269319,"MEAN_MOTION_DOT":5.54e-6,"MEAN_MOTION_DDOT":0},{"OBJECT_NAME":"ONEWEB-0086","OBJECT_ID":"2020-020AJ","EPOCH":"2025-11-06T06:56:01.384224","MEAN_MOTION":13.11420597,"ECCENTRICITY":0.00022523,"INCLINATION":87.8861,"RA_OF_ASC_NODE":65.437,"ARG_OF_PERICENTER":114.0797,"MEAN_ANOMALY":246.0566,"EPHEMERIS_TYPE":0,"CLASSIFICATION_TYPE":"U","NORAD_CAT_ID":45456,"ELEMENT_SET_NO":999,"REV_AT_EPOCH":27339,"BSTAR":-0.00071030386,"MEAN_MOTION_DOT":-2.39e-6,"MEAN_MOTION_DDOT":0},{"OBJECT_NAME":"ONEWEB-0088","OBJECT_ID":"2020-020AK","EPOCH":"2025-11-06T06:24:17.755488","MEAN_MOTION":13.11418333,"ECCENTRICITY":0.00014546,"INCLINATION":87.8872,"RA_OF_ASC_NODE":65.3931,"ARG_OF_PERICENTER":102.7076,"MEAN_ANOMALY":257.4215,"EPHEMERIS_TYPE":0,"CLASSIFICATION_TYPE":"U","NORAD_CAT_ID":45457,"ELEMENT_SET_NO":999,"REV_AT_EPOCH":27332,"BSTAR":-0.00087901518,"MEAN_MOTION_DOT":-2.99e-6,"MEAN_MOTION_DDOT":0},{"OBJECT_NAME":"ONEWEB-0102","OBJECT_ID":"2020-100A","EPOCH":"2025-11-06T07:02:43.104480","MEAN_MOTION":13.12442921,"ECCENTRICITY":0.00018746,"INCLINATION":87.8977,"RA_OF_ASC_NODE":34.9662,"ARG_OF_PERICENTER":97.1068,"MEAN_ANOMALY":263.0274,"EPHEMERIS_TYPE":0,"CLASSIFICATION_TYPE":"U","NORAD_CAT_ID":47258,"ELEMENT_SET_NO":999,"REV_AT_EPOCH":23549,"BSTAR":0.00041216931,"MEAN_MOTION_DOT":1.61e-6,"MEAN_MOTION_DDOT":0},{"OBJECT_NAME":"ONEWEB-0109","OBJECT_ID":"2020-100B","EPOCH":"2025-11-06T07:14:23.640000","MEAN_MOTION":13.12442552,"ECCENTRICITY":0.00018622,"INCLINATION":87.8977,"RA_OF_ASC_NODE":34.9321,"ARG_OF_PERICENTER":99.3969,"MEAN_ANOMALY":260.737,"EPHEMERIS_TYPE":0,"CLASSIFICATION_TYPE":"U","NORAD_CAT_ID":47259,"ELEMENT_SET_NO":999,"REV_AT_EPOCH":23532,"BSTAR":0.0010941627,"MEAN_MOTION_DOT":4.06e-6,"MEAN_MOTION_DDOT":0},{"OBJECT_NAME":"ONEWEB-0110","OBJECT_ID":"2020-100C","EPOCH":"2025-11-06T06:01:58.515744","MEAN_MOTION":13.1244256,"ECCENTRICITY":0.00019518,"INCLINATION":87.8975,"RA_OF_ASC_NODE":34.9257,"ARG_OF_PERICENTER":108.3726,"MEAN_ANOMALY":251.7614,"EPHEMERIS_TYPE":0,"CLASSIFICATION_TYPE":"U","NORAD_CAT_ID":47260,"ELEMENT_SET_NO":999,"REV_AT_EPOCH":23548,"BSTAR":-8.4509183e-5,"MEAN_MOTION_DOT":-1.8e-7,"MEAN_MOTION_DDOT":0},{"OBJECT_NAME":"ONEWEB-0111","OBJECT_ID":"2020-100D","EPOCH":"2025-11-06T06:46:20.395200","MEAN_MOTION":13.12443174,"ECCENTRICITY":0.00017873,"INCLINATION":87.8974,"RA_OF_ASC_NODE":34.9373,"ARG_OF_PERICENTER":100.6306,"MEAN_ANOMALY":259.5024,"EPHEMERIS_TYPE":0,"CLASSIFICATION_TYPE":"U","NORAD_CAT_ID":47261,"ELEMENT_SET_NO":999,"REV_AT_EPOCH":23532,"BSTAR":-0.00074303711,"MEAN_MOTION_DOT":-2.55e-6,"MEAN_MOTION_DDOT":0},{"OBJECT_NAME":"ONEWEB-0114","OBJECT_ID":"2020-100E","EPOCH":"2025-11-06T05:40:57.818784","MEAN_MOTION":13.12443164,"ECCENTRICITY":0.00018723,"INCLINATION":87.8975,"RA_OF_ASC_NODE":34.9407,"ARG_OF_PERICENTER":92.5027,"MEAN_ANOMALY":267.6316,"EPHEMERIS_TYPE":0,"CLASSIFICATION_TYPE":"U","NORAD_CAT_ID":47262,"ELEMENT_SET_NO":999,"REV_AT_EPOCH":23527,"BSTAR":0.0012847165,"MEAN_MOTION_DOT":4.75e-6,"MEAN_MOTION_DDOT":0},{"OBJECT_NAME":"ONEWEB-0117","OBJECT_ID":"2020-100F","EPOCH":"2025-11-06T07:19:04.033056","MEAN_MOTION":13.12441629,"ECCENTRICITY":0.00017687,"INCLINATION":87.8975,"RA_OF_ASC_NODE":34.9251,"ARG_OF_PERICENTER":102.6317,"MEAN_ANOMALY":257.501,"EPHEMERIS_TYPE":0,"CLASSIFICATION_TYPE":"U","NORAD_CAT_ID":47263,"ELEMENT_SET_NO":999,"REV_AT_EPOCH":23529,"BSTAR":0.0013308507,"MEAN_MOTION_DOT":4.92e-6,"MEAN_MOTION_DDOT":0},{"OBJECT_NAME":"ONEWEB-0118","OBJECT_ID":"2020-100G","EPOCH":"2025-11-06T06:15:59.404608","MEAN_MOTION":13.1244244,"ECCENTRICITY":0.00016049,"INCLINATION":87.8977,"RA_OF_ASC_NODE":34.9329,"ARG_OF_PERICENTER":90.9729,"MEAN_ANOMALY":269.1583,"EPHEMERIS_TYPE":0,"CLASSIFICATION_TYPE":"U","NORAD_CAT_ID":47264,"ELEMENT_SET_NO":999,"REV_AT_EPOCH":23548,"BSTAR":-0.00080550768,"MEAN_MOTION_DOT":-2.77e-6,"MEAN_MOTION_DDOT":0},{"OBJECT_NAME":"ONEWEB-0119","OBJECT_ID":"2020-100H","EPOCH":"2025-11-06T06:55:42.131712","MEAN_MOTION":13.12443616,"ECCENTRICITY":0.00018288,"INCLINATION":87.8972,"RA_OF_ASC_NODE":34.9639,"ARG_OF_PERICENTER":101.3587,"MEAN_ANOMALY":258.7747,"EPHEMERIS_TYPE":0,"CLASSIFICATION_TYPE":"U","NORAD_CAT_ID":47265,"ELEMENT_SET_NO":999,"REV_AT_EPOCH":23546,"BSTAR":0.00034592114,"MEAN_MOTION_DOT":1.37e-6,"MEAN_MOTION_DDOT":0},{"OBJECT_NAME":"ONEWEB-0120","OBJECT_ID":"2020-100J","EPOCH":"2025-11-06T05:38:49.918272","MEAN_MOTION":13.12442963,"ECCENTRICITY":0.00018106,"INCLINATION":87.8968,"RA_OF_ASC_NODE":34.9768,"ARG_OF_PERICENTER":98.4359,"MEAN_ANOMALY":261.6975,"EPHEMERIS_TYPE":0,"CLASSIFICATION_TYPE":"U","NORAD_CAT_ID":47266,"ELEMENT_SET_NO":999,"REV_AT_EPOCH":23548,"BSTAR":0.0013752893,"MEAN_MOTION_DOT":5.08e-6,"MEAN_MOTION_DDOT":0},{"OBJECT_NAME":"ONEWEB-0121","OBJECT_ID":"2020-100K","EPOCH":"2025-11-06T07:12:03.578688","MEAN_MOTION":13.12442593,"ECCENTRICITY":0.00018464,"INCLINATION":87.8972,"RA_OF_ASC_NODE":34.9297,"ARG_OF_PERICENTER":105.9129,"MEAN_ANOMALY":254.2203,"EPHEMERIS_TYPE":0,"CLASSIFICATION_TYPE":"U","NORAD_CAT_ID":47267,"ELEMENT_SET_NO":999,"REV_AT_EPOCH":23540,"BSTAR":0.0012606728,"MEAN_MOTION_DOT":4.66e-6,"MEAN_MOTION_DDOT":0},{"OBJECT_NAME":"ONEWEB-0122","OBJECT_ID":"2020-100L","EPOCH":"2025-11-06T07:04:51.300480","MEAN_MOTION":13.12443199,"ECCENTRICITY":0.00019221,"INCLINATION":87.8973,"RA_OF_ASC_NODE":34.9334,"ARG_OF_PERICENTER":100.9847,"MEAN_ANOMALY":259.1498,"EPHEMERIS_TYPE":0,"CLASSIFICATION_TYPE":"U","NORAD_CAT_ID":47268,"ELEMENT_SET_NO":999,"REV_AT_EPOCH":23531,"BSTAR":0.00090243321,"MEAN_MOTION_DOT":3.37e-6,"MEAN_MOTION_DDOT":0},{"OBJECT_NAME":"ONEWEB-0123","OBJECT_ID":"2020-100M","EPOCH":"2025-11-06T05:08:14.297568","MEAN_MOTION":13.12444059,"ECCENTRICITY":0.00016279,"INCLINATION":87.8974,"RA_OF_ASC_NODE":34.9768,"ARG_OF_PERICENTER":99.878,"MEAN_ANOMALY":260.2532,"EPHEMERIS_TYPE":0,"CLASSIFICATION_TYPE":"U","NORAD_CAT_ID":47269,"ELEMENT_SET_NO":999,"REV_AT_EPOCH":23544,"BSTAR":-0.00045767128,"MEAN_MOTION_DOT":-1.52e-6,"MEAN_MOTION_DDOT":0},{"OBJECT_NAME":"ONEWEB-0124","OBJECT_ID":"2020-100N","EPOCH":"2025-11-06T06:41:39.964992","MEAN_MOTION":13.12442002,"ECCENTRICITY":0.00016995,"INCLINATION":87.8974,"RA_OF_ASC_NODE":34.9677,"ARG_OF_PERICENTER":107.0847,"MEAN_ANOMALY":253.0468,"EPHEMERIS_TYPE":0,"CLASSIFICATION_TYPE":"U","NORAD_CAT_ID":47270,"ELEMENT_SET_NO":999,"REV_AT_EPOCH":23533,"BSTAR":-0.00061579739,"MEAN_MOTION_DOT":-2.09e-6,"MEAN_MOTION_DDOT":0},{"OBJECT_NAME":"ONEWEB-0125","OBJECT_ID":"2020-100P","EPOCH":"2025-11-06T06:08:58.909632","MEAN_MOTION":13.12442351,"ECCENTRICITY":0.00014635,"INCLINATION":87.8976,"RA_OF_ASC_NODE":34.9344,"ARG_OF_PERICENTER":103.0688,"MEAN_ANOMALY":257.0604,"EPHEMERIS_TYPE":0,"CLASSIFICATION_TYPE":"U","NORAD_CAT_ID":47271,"ELEMENT_SET_NO":999,"REV_AT_EPOCH":23539,"BSTAR":-0.00055680443,"MEAN_MOTION_DOT":-1.88e-6,"MEAN_MOTION_DDOT":0},{"OBJECT_NAME":"ONEWEB-0126","OBJECT_ID":"2020-100Q","EPOCH":"2025-11-06T06:39:32.348736","MEAN_MOTION":13.12445841,"ECCENTRICITY":0.0001831,"INCLINATION":87.8975,"RA_OF_ASC_NODE":34.9538,"ARG_OF_PERICENTER":98.3539,"MEAN_ANOMALY":261.7798,"EPHEMERIS_TYPE":0,"CLASSIFICATION_TYPE":"U","NORAD_CAT_ID":47272,"ELEMENT_SET_NO":999,"REV_AT_EPOCH":23546,"BSTAR":-0.00059412423,"MEAN_MOTION_DOT":-2.01e-6,"MEAN_MOTION_DDOT":0},{"OBJECT_NAME":"ONEWEB-0127","OBJECT_ID":"2020-100R","EPOCH":"2025-11-06T05:50:18.391488","MEAN_MOTION":13.12442702,"ECCENTRICITY":0.00018505,"INCLINATION":87.8979,"RA_OF_ASC_NODE":34.9716,"ARG_OF_PERICENTER":99.424,"MEAN_ANOMALY":260.7098,"EPHEMERIS_TYPE":0,"CLASSIFICATION_TYPE":"U","NORAD_CAT_ID":47273,"ELEMENT_SET_NO":999,"REV_AT_EPOCH":23548,"BSTAR":0.00069611233,"MEAN_MOTION_DOT":2.63e-6,"MEAN_MOTION_DDOT":0},{"OBJECT_NAME":"ONEWEB-0128","OBJECT_ID":"2020-100S","EPOCH":"2025-11-06T06:22:59.915136","MEAN_MOTION":13.12442946,"ECCENTRICITY":0.00019872,"INCLINATION":87.8963,"RA_OF_ASC_NODE":34.9865,"ARG_OF_PERICENTER":104.6049,"MEAN_ANOMALY":255.53,"EPHEMERIS_TYPE":0,"CLASSIFICATION_TYPE":"U","NORAD_CAT_ID":47274,"ELEMENT_SET_NO":999,"REV_AT_EPOCH":23550,"BSTAR":-0.0011409479,"MEAN_MOTION_DOT":-3.98e-6,"MEAN_MOTION_DDOT":0},{"OBJECT_NAME":"ONEWEB-0129","OBJECT_ID":"2020-100T","EPOCH":"2025-11-06T05:52:38.462304","MEAN_MOTION":13.12442567,"ECCENTRICITY":0.00025532,"INCLINATION":87.8979,"RA_OF_ASC_NODE":34.9401,"ARG_OF_PERICENTER":78.6211,"MEAN_ANOMALY":281.5204,"EPHEMERIS_TYPE":0,"CLASSIFICATION_TYPE":"U","NORAD_CAT_ID":47275,"ELEMENT_SET_NO":999,"REV_AT_EPOCH":23543,"BSTAR":0.00054367317,"MEAN_MOTION_DOT":2.08e-6,"MEAN_MOTION_DDOT":0},{"OBJECT_NAME":"ONEWEB-0130","OBJECT_ID":"2020-100U","EPOCH":"2025-11-06T06:32:19.554720","MEAN_MOTION":13.12441444,"ECCENTRICITY":0.00018798,"INCLINATION":87.8973,"RA_OF_ASC_NODE":34.9307,"ARG_OF_PERICENTER":101.9257,"MEAN_ANOMALY":258.2082,"EPHEMERIS_TYPE":0,"CLASSIFICATION_TYPE":"U","NORAD_CAT_ID":47276,"ELEMENT_SET_NO":999,"REV_AT_EPOCH":23540,"BSTAR":-0.00085177839,"MEAN_MOTION_DOT":-2.94e-6,"MEAN_MOTION_DDOT":0},{"OBJECT_NAME":"ONEWEB-0131","OBJECT_ID":"2020-100V","EPOCH":"2025-11-06T06:27:39.470976","MEAN_MOTION":13.12441726,"ECCENTRICITY":0.00017762,"INCLINATION":87.8977,"RA_OF_ASC_NODE":34.9617,"ARG_OF_PERICENTER":103.0447,"MEAN_ANOMALY":257.0879,"EPHEMERIS_TYPE":0,"CLASSIFICATION_TYPE":"U","NORAD_CAT_ID":47277,"ELEMENT_SET_NO":999,"REV_AT_EPOCH":23544,"BSTAR":-0.0010691426,"MEAN_MOTION_DOT":-3.72e-6,"MEAN_MOTION_DDOT":0}]
